{
  "type": "FeatureCollection",
  "features": [
    {
      "type": "Feature",
      "properties": {
        "norad_id": 35071,
        "name": "COSMOS 2251 DEB",
        "group": "cosmos-2251-debris",
        "lat": -56.2546627561018,
        "lon": 140.8377484336908,
        "alt_km": 587.4162657395955,
        "timestamp": "2025-12-16T03:53:27.451258+00:00",
        "meta_object_name": "COSMOS 2251 DEB",
        "meta_object_id": "1993-036AJA",
        "meta_epoch": "2025-12-15T05:48:00.328608",
        "meta_mean_motion": 15.03511142,
        "meta_eccentricity": 0.00682493,
        "meta_inclination": 73.9308,
        "meta_ra_of_asc_node": 168.2912,
        "meta_arg_of_pericenter": 63.9875,
        "meta_mean_anomaly": 296.832,
        "meta_ephemeris_type": 0,
        "meta_classification_type": "U",
        "meta_norad_cat_id": 35071,
        "meta_element_set_no": 999,
        "meta_rev_at_epoch": 67574,
        "meta_bstar": 0.00048068034,
        "meta_mean_motion_dot": 6.863e-05,
        "meta_mean_motion_ddot": 0,
        "tle_line1": "1 35071U 93036AJA 25349.24167047  .00006863  00000+0  48068-3 0  9992",
        "tle_line2": "2 35071  73.9308 168.2912 0068249  63.9875 296.8320 15.03511142675746"
      },
      "geometry": {
        "type": "Point",
        "coordinates": [
          140.8377484336908,
          -56.2546627561018
        ]
      }
    },
    {
      "type": "Feature",
      "properties": {
        "norad_id": 35073,
        "name": "COSMOS 2251 DEB",
        "group": "cosmos-2251-debris",
        "lat": 13.954997491882304,
        "lon": -32.312688159540485,
        "alt_km": 560.034654998105,
        "timestamp": "2025-12-16T03:53:27.451269+00:00",
        "meta_object_name": "COSMOS 2251 DEB",
        "meta_object_id": "1993-036AJC",
        "meta_epoch": "2025-12-15T05:25:47.046144",
        "meta_mean_motion": 15.00831653,
        "meta_eccentricity": 0.00109074,
        "meta_inclination": 73.9997,
        "meta_ra_of_asc_node": 325.5063,
        "meta_arg_of_pericenter": 67.0121,
        "meta_mean_anomaly": 293.2216,
        "meta_ephemeris_type": 0,
        "meta_classification_type": "U",
        "meta_norad_cat_id": 35073,
        "meta_element_set_no": 999,
        "meta_rev_at_epoch": 67516,
        "meta_bstar": 0.001951072,
        "meta_mean_motion_dot": 0.00024882,
        "meta_mean_motion_ddot": 0,
        "tle_line1": "1 35073U 93036AJC 25349.22623896  .00024882  00000+0  19511-2 0  9992",
        "tle_line2": "2 35073  73.9997 325.5063 0010907  67.0121 293.2216 15.00831653675164"
      },
      "geometry": {
        "type": "Point",
        "coordinates": [
          -32.312688159540485,
          13.954997491882304
        ]
      }
    },
    {
      "type": "Feature",
      "properties": {
        "norad_id": 35284,
        "name": "COSMOS 2251 DEB",
        "group": "cosmos-2251-debris",
        "lat": 50.43994097574064,
        "lon": -81.62148121317942,
        "alt_km": 756.8399482777604,
        "timestamp": "2025-12-16T03:53:27.451279+00:00",
        "meta_object_name": "COSMOS 2251 DEB",
        "meta_object_id": "1993-036AJN",
        "meta_epoch": "2025-12-15T01:01:49.298880",
        "meta_mean_motion": 14.3832052,
        "meta_eccentricity": 0.00168781,
        "meta_inclination": 74.049,
        "meta_ra_of_asc_node": 260.1826,
        "meta_arg_of_pericenter": 336.2576,
        "meta_mean_anomaly": 44.1378,
        "meta_ephemeris_type": 0,
        "meta_classification_type": "U",
        "meta_norad_cat_id": 35284,
        "meta_element_set_no": 999,
        "meta_rev_at_epoch": 65559,
        "meta_bstar": 0.00017308448,
        "meta_mean_motion_dot": 5.01e-06,
        "meta_mean_motion_ddot": 0,
        "tle_line1": "1 35284U 93036AJN 25349.04293170  .00000501  00000+0  17308-3 0  9999",
        "tle_line2": "2 35284  74.0490 260.1826 0016878 336.2576  44.1378 14.38320520655590"
      },
      "geometry": {
        "type": "Point",
        "coordinates": [
          -81.62148121317942,
          50.43994097574064
        ]
      }
    },
    {
      "type": "Feature",
      "properties": {
        "norad_id": 35287,
        "name": "COSMOS 2251 DEB",
        "group": "cosmos-2251-debris",
        "lat": -23.952588978750246,
        "lon": 97.156070334222,
        "alt_km": 787.5635094178724,
        "timestamp": "2025-12-16T03:53:27.451289+00:00",
        "meta_object_name": "COSMOS 2251 DEB",
        "meta_object_id": "1993-036AJR",
        "meta_epoch": "2025-12-15T05:55:00.432192",
        "meta_mean_motion": 14.36378711,
        "meta_eccentricity": 0.00176767,
        "meta_inclination": 74.0306,
        "meta_ra_of_asc_node": 271.5295,
        "meta_arg_of_pericenter": 7.6166,
        "meta_mean_anomaly": 144.7385,
        "meta_ephemeris_type": 0,
        "meta_classification_type": "U",
        "meta_norad_cat_id": 35287,
        "meta_element_set_no": 999,
        "meta_rev_at_epoch": 86928,
        "meta_bstar": 0.00014818265,
        "meta_mean_motion_dot": 4.08e-06,
        "meta_mean_motion_ddot": 0,
        "tle_line1": "1 35287U 93036AJR 25349.24653278  .00000408  00000+0  14818-3 0  9992",
        "tle_line2": "2 35287  74.0306 271.5295 0017676   7.6166 144.7385 14.36378711869287"
      },
      "geometry": {
        "type": "Point",
        "coordinates": [
          97.156070334222,
          -23.952588978750246
        ]
      }
    },
    {
      "type": "Feature",
      "properties": {
        "norad_id": 35288,
        "name": "COSMOS 2251 DEB",
        "group": "cosmos-2251-debris",
        "lat": -5.828637655741241,
        "lon": 6.8680033086181735,
        "alt_km": 689.4031229302982,
        "timestamp": "2025-12-16T03:53:27.451299+00:00",
        "meta_object_name": "COSMOS 2251 DEB",
        "meta_object_id": "1993-036AJS",
        "meta_epoch": "2025-12-15T08:15:30.303072",
        "meta_mean_motion": 14.65486547,
        "meta_eccentricity": 0.00393272,
        "meta_inclination": 73.9514,
        "meta_ra_of_asc_node": 10.134,
        "meta_arg_of_pericenter": 243.2869,
        "meta_mean_anomaly": 116.4271,
        "meta_ephemeris_type": 0,
        "meta_classification_type": "U",
        "meta_norad_cat_id": 35288,
        "meta_element_set_no": 999,
        "meta_rev_at_epoch": 87916,
        "meta_bstar": 0.00067125427,
        "meta_mean_motion_dot": 3.647e-05,
        "meta_mean_motion_ddot": 0,
        "tle_line1": "1 35288U 93036AJS 25349.34410073  .00003647  00000+0  67125-3 0  9995",
        "tle_line2": "2 35288  73.9514  10.1340 0039327 243.2869 116.4271 14.65486547879167"
      },
      "geometry": {
        "type": "Point",
        "coordinates": [
          6.8680033086181735,
          -5.828637655741241
        ]
      }
    },
    {
      "type": "Feature",
      "properties": {
        "norad_id": 35290,
        "name": "COSMOS 2251 DEB",
        "group": "cosmos-2251-debris",
        "lat": 72.6023663317728,
        "lon": 166.41079685236951,
        "alt_km": 620.5746738518556,
        "timestamp": "2025-12-16T03:53:27.451309+00:00",
        "meta_object_name": "COSMOS 2251 DEB",
        "meta_object_id": "1993-036AJU",
        "meta_epoch": "2025-12-14T22:15:45.669888",
        "meta_mean_motion": 14.80458597,
        "meta_eccentricity": 0.00020677,
        "meta_inclination": 74.0056,
        "meta_ra_of_asc_node": 55.1126,
        "meta_arg_of_pericenter": 193.41,
        "meta_mean_anomaly": 166.7021,
        "meta_ephemeris_type": 0,
        "meta_classification_type": "U",
        "meta_norad_cat_id": 35290,
        "meta_element_set_no": 999,
        "meta_rev_at_epoch": 87990,
        "meta_bstar": 0.0010997374,
        "meta_mean_motion_dot": 8.388e-05,
        "meta_mean_motion_ddot": 0,
        "tle_line1": "1 35290U 93036AJU 25348.92761192  .00008388  00000+0  10997-2 0  9993",
        "tle_line2": "2 35290  74.0056  55.1126 0002067 193.4100 166.7021 14.80458597879903"
      },
      "geometry": {
        "type": "Point",
        "coordinates": [
          166.41079685236951,
          72.6023663317728
        ]
      }
    },
    {
      "type": "Feature",
      "properties": {
        "norad_id": 35432,
        "name": "COSMOS 2251 DEB",
        "group": "cosmos-2251-debris",
        "lat": 41.73378199161753,
        "lon": 173.52346603433915,
        "alt_km": 498.79864297101904,
        "timestamp": "2025-12-16T03:53:27.451319+00:00",
        "meta_object_name": "COSMOS 2251 DEB",
        "meta_object_id": "1993-036AKA",
        "meta_epoch": "2025-12-14T11:53:53.822112",
        "meta_mean_motion": 15.23399104,
        "meta_eccentricity": 0.00124915,
        "meta_inclination": 74.0198,
        "meta_ra_of_asc_node": 11.8484,
        "meta_arg_of_pericenter": 339.2428,
        "meta_mean_anomaly": 20.8262,
        "meta_ephemeris_type": 0,
        "meta_classification_type": "U",
        "meta_norad_cat_id": 35432,
        "meta_element_set_no": 999,
        "meta_rev_at_epoch": 87530,
        "meta_bstar": 0.0051316466,
        "meta_mean_motion_dot": 0.00124451,
        "meta_mean_motion_ddot": 0,
        "tle_line1": "1 35432U 93036AKA 25348.49576183  .00124451  00000+0  51316-2 0  9997",
        "tle_line2": "2 35432  74.0198  11.8484 0012491 339.2428  20.8262 15.23399104875302"
      },
      "geometry": {
        "type": "Point",
        "coordinates": [
          173.52346603433915,
          41.73378199161753
        ]
      }
    }
  ]
}